OBJECT_NAME,OBJECT_ID,EPOCH,MEAN_MOTION,ECCENTRICITY,INCLINATION,RA_OF_ASC_NODE,ARG_OF_PERICENTER,MEAN_ANOMALY,EPHEMERIS_TYPE,CLASSIFICATION_TYPE,NORAD_CAT_ID,ELEMENT_SET_NO,REV_AT_EPOCH,BSTAR,MEAN_MOTION_DOT,MEAN_MOTION_DDOT
FENGYUN 3D,2017-072A,2026-07-12T20:53:40.797312,14.19743250,.0001676,99.0135,168.7585,20.1244,339.9997,0,U,43010,999,44863,-.11482E-3,-.289E-5,0
NOAA 20 (JPSS-1),2017-073A,2026-07-12T19:11:00.263040,14.19516178,.0001299,98.7773,133.0349,126.5566,233.5729,0,U,43013,999,44810,.28674E-4,.16E-6,0
GOES 17,2018-022A,2026-07-12T19:55:46.065792,1.00271416,.0000542,1.0003,85.2906,86.2371,328.6370,0,U,43226,999,3068,0,-.184E-5,0
SENTINEL-3B,2018-039A,2026-07-12T18:53:25.467648,14.26735933,.0001083,98.6237,260.9506,119.4324,240.6964,0,U,43437,999,42777,.19507E-4,.4E-7,0
FENGYUN 2H,2018-050A,2026-07-12T21:05:15.443808,1.00267406,.0002291,3.0937,78.7686,133.2585,114.2193,0,U,43491,999,2969,0,-.131E-5,0
METOP-C,2018-087A,2026-07-12T19:54:52.515072,14.21518642,.0002214,98.6631,252.9630,96.9009,263.2420,0,U,43689,999,39847,.42307E-4,.49E-6,0
GEO-KOMPSAT-2A,2018-100A,2026-07-12T17:32:33.997056,1.00270920,.0001939,0.0256,113.3303,348.5543,220.1415,0,U,43823,999,2788,0,-.344E-5,0
METEOR-M2 2,2019-038A,2026-07-12T19:32:28.072320,14.24372043,.00009,98.9154,181.4788,8.4246,351.6947,0,U,44387,999,36494,-.10047E-4,-.69E-6,0
ARKTIKA-M 1,2021-016A,2026-07-07T10:17:34.884672,2.00614486,.72950864,63.2524,54.6812,270.0380,14.5466,0,U,47719,999,3919,0,-.257E-5,0
FENGYUN 3E,2021-062A,2026-07-12T20:26:21.723648,14.19905909,.0002341,98.7499,196.9734,43.9598,316.1764,0,U,49008,999,26022,.11974E-4,-.19E-6,0
GOES 18,2022-021A,2026-07-12T17:59:31.412832,1.00272940,.0000604,0.0163,128.1626,67.3359,228.0232,0,U,51850,999,684,0,.96E-6,0
NOAA 21 (JPSS-2),2022-150A,2026-07-12T19:57:34.100352,14.19540841,.0002778,98.7060,132.1902,108.8383,251.3095,0,U,54234,999,19018,.17959E-4,-.6E-7,0
METEOSAT-12 (MTG-I1),2022-170C,2026-07-12T18:38:34.478880,1.00267154,.0003772,0.7226,19.2711,82.5945,108.1551,0,U,54743,999,1323,0,-.9E-7,0
TIANMU-1 03,2023-039A,2026-07-12T20:21:16.018848,15.48001137,.0002777,97.5235,8.8369,33.1097,327.0326,0,U,55973,999,18480,.2014E-3,.10431E-3,0
TIANMU-1 04,2023-039B,2026-07-12T19:51:33.624864,15.48623908,.000326,97.5170,7.9713,21.8093,338.3295,0,U,55974,999,18481,.21167E-3,.11211E-3,0
TIANMU-1 05,2023-039C,2026-07-12T19:55:23.015136,15.47924462,.0003174,97.5216,8.4236,51.8666,308.2870,0,U,55975,999,18478,.20754E-3,.10724E-3,0
TIANMU-1 06,2023-039D,2026-07-12T19:58:47.980128,15.48521409,.000329,97.5223,9.0878,43.8641,316.2870,0,U,55976,999,18481,.21108E-3,.11139E-3,0
FENGYUN 3G,2023-055A,2026-07-12T12:27:02.297376,15.53706483,.00071454,49.9907,215.3889,43.6314,316.5217,0,U,56232,999,18394,.22219972E-3,.1407E-3,0
METEOR-M2 3,2023-091A,2026-07-12T21:13:59.229984,14.24048771,.0005146,98.6069,248.3354,95.4524,264.7243,0,U,57166,999,15817,.10764E-4,-.18E-6,0
TIANMU-1 07,2023-101A,2026-07-12T20:51:38.174112,15.30099685,.0003886,97.2583,243.9500,69.3777,290.7880,0,U,57399,999,16557,.14282E-3,.4086E-4,0
TIANMU-1 08,2023-101B,2026-07-12T20:03:30.074400,15.30103237,.0004832,97.2572,243.6843,52.5944,307.5736,0,U,57400,999,16556,.14244E-3,.4076E-4,0
TIANMU-1 09,2023-101C,2026-07-12T21:12:56.249568,15.30143760,.0004504,97.2530,243.1340,69.9133,290.2593,0,U,57401,999,16557,.14367E-3,.4117E-4,0
TIANMU-1 10,2023-101D,2026-07-12T20:27:00.635616,15.30117103,.0005826,97.2609,244.1796,60.6629,299.5194,0,U,57402,999,16556,.14483E-3,.4148E-4,0
FENGYUN 3F,2023-111A,2026-07-12T20:02:18.848832,14.19943150,.0001317,98.6826,263.3645,77.4405,282.6918,0,U,57490,999,15250,.17516E-4,-.6E-7,0
ARKTIKA-M 2,2023-198A,2026-07-10T04:34:00.609312,2.00608615,.69090643,63.2187,151.7914,267.3543,18.7503,0,U,58584,999,1878,0,.186E-5,0
TIANMU-1 11,2023-205A,2026-07-12T20:53:07.562688,15.27250288,.0006757,97.3442,215.0272,272.7160,87.3306,0,U,58645,999,14144,.13023E-3,.3405E-4,0
TIANMU-1 12,2023-205B,2026-07-12T20:13:00.653952,15.27081320,.0005661,97.3430,214.7476,245.1169,114.9482,0,U,58646,999,14142,.1371E-3,.357E-4,0
TIANMU-1 13,2023-205C,2026-07-12T21:01:09.045696,15.27073857,.0005567,97.3459,215.0597,222.0814,137.9998,0,U,58647,999,14142,.13235E-3,.3443E-4,0
TIANMU-1 14,2023-205D,2026-07-12T20:38:46.360320,15.27117904,.0006226,97.3394,214.2061,230.0096,130.0597,0,U,58648,999,14142,.13821E-3,.3604E-4,0
TIANMU-1 19,2023-208A,2026-07-12T19:54:30.451104,15.31953857,.0004356,97.4523,310.2692,207.3583,152.7430,0,U,58660,999,14125,.17204E-3,.5229E-4,0
TIANMU-1 20,2023-208B,2026-07-12T20:20:17.602944,15.33143306,.000612,97.4465,310.9492,221.4227,138.6552,0,U,58661,999,14135,.17184E-3,.5424E-4,0
