FENGYUN 3D              
1 43010U 17072A   26193.87061108 -.00000289  00000+0 -11482-3 0  9996
2 43010  99.0135 168.7585 0001676  20.1244 339.9997 14.19743250448630
NOAA 20 (JPSS-1)        
1 43013U 17073A   26193.79930860  .00000016  00000+0  28674-4 0  9999
2 43013  98.7773 133.0349 0001299 126.5566 233.5729 14.19516178448100
GOES 17                 
1 43226U 18022A   26193.83039428 -.00000184  00000+0  00000+0 0  9990
2 43226   1.0003  85.2906 0000542  86.2371 328.6370  1.00271416 30689
SENTINEL-3B             
1 43437U 18039A   26193.78710032  .00000004  00000+0  19507-4 0  9990
2 43437  98.6237 260.9506 0001083 119.4324 240.6964 14.26735933427773
FENGYUN 2H              
1 43491U 18050A   26193.87865097 -.00000131  00000+0  00000+0 0  9990
2 43491   3.0937  78.7686 0002291 133.2585 114.2193  1.00267406 29691
METOP-C                 
1 43689U 18087A   26193.82977448  .00000049  00000+0  42307-4 0  9996
2 43689  98.6631 252.9630 0002214  96.9009 263.2420 14.21518642398478
GEO-KOMPSAT-2A          
1 43823U 18100A   26193.73094904 -.00000344  00000+0  00000+0 0  9997
2 43823   0.0256 113.3303 0001939 348.5543 220.1415  1.00270920 27884
METEOR-M2 2             
1 44387U 19038A   26193.81421380 -.00000069  00000+0 -10047-4 0  9997
2 44387  98.9154 181.4788 0000900   8.4246 351.6947 14.24372043364945
ARKTIKA-M 1             
1 47719U 21016A   26188.42887598 -.00000257  00000+0  00000+0 0  9997
2 47719  63.2524  54.6812 7295086 270.0380  14.5466  2.00614486 39194
FENGYUN 3E              
1 49008U 21062A   26193.85164032 -.00000019  00000+0  11974-4 0  9998
2 49008  98.7499 196.9734 0002341  43.9598 316.1764 14.19905909260223
GOES 18                 
1 51850U 22021A   26193.74966913  .00000096  00000+0  00000+0 0  9995
2 51850   0.0163 128.1626 0000604  67.3359 228.0232  1.00272940  6842
NOAA 21 (JPSS-2)        
1 54234U 22150A   26193.83164468 -.00000006  00000+0  17959-4 0  9990
2 54234  98.7060 132.1902 0002778 108.8383 251.3095 14.19540841190184
METEOSAT-12 (MTG-I1)    
1 54743U 22170C   26193.77678795 -.00000009  00000+0  00000+0 0  9990
2 54743   0.7226  19.2711 0003772  82.5945 108.1551  1.00267154 13231
TIANMU-1 03             
1 55973U 23039A   26193.84810207  .00010431  00000+0  20140-3 0  9995
2 55973  97.5235   8.8369 0002777  33.1097 327.0326 15.48001137184806
TIANMU-1 04             
1 55974U 23039B   26193.82747251  .00011211  00000+0  21167-3 0  9999
2 55974  97.5170   7.9713 0003260  21.8093 338.3295 15.48623908184813
TIANMU-1 05             
1 55975U 23039C   26193.83012749  .00010724  00000+0  20754-3 0  9997
2 55975  97.5216   8.4236 0003174  51.8666 308.2870 15.47924462184783
TIANMU-1 06             
1 55976U 23039D   26193.83249977  .00011139  00000+0  21108-3 0  9998
2 55976  97.5223   9.0878 0003290  43.8641 316.2870 15.48521409184812
FENGYUN 3G              
1 56232U 23055A   26193.51877659  .00014070  00000+0  22220-3 0  9994
2 56232  49.9907 215.3889 0007145  43.6314 316.5217 15.53706483183944
METEOR-M2 3             
1 57166U 23091A   26193.88471331 -.00000018  00000+0  10764-4 0  9997
2 57166  98.6069 248.3354 0005146  95.4524 264.7243 14.24048771158177
TIANMU-1 07             
1 57399U 23101A   26193.86919183  .00004086  00000+0  14282-3 0  9993
2 57399  97.2583 243.9500 0003886  69.3777 290.7880 15.30099685165570
TIANMU-1 08             
1 57400U 23101B   26193.83576475  .00004076  00000+0  14244-3 0  9993
2 57400  97.2572 243.6843 0004832  52.5944 307.5736 15.30103237165565
TIANMU-1 09             
1 57401U 23101C   26193.88398437  .00004117  00000+0  14367-3 0  9991
2 57401  97.2530 243.1340 0004504  69.9133 290.2593 15.30143760165570
TIANMU-1 10             
1 57402U 23101D   26193.85209069  .00004148  00000+0  14483-3 0  9994
2 57402  97.2609 244.1796 0005826  60.6629 299.5194 15.30117103165560
FENGYUN 3F              
1 57490U 23111A   26193.83494038 -.00000006  00000+0  17516-4 0  9993
2 57490  98.6826 263.3645 0001317  77.4405 282.6918 14.19943150152500
ARKTIKA-M 2             
1 58584U 23198A   26191.19028483  .00000186  00000+0  00000+0 0  9990
2 58584  63.2187 151.7914 6909064 267.3543  18.7503  2.00608615 18787
TIANMU-1 11             
1 58645U 23205A   26193.87022642  .00003405  00000+0  13023-3 0  9995
2 58645  97.3442 215.0272 0006757 272.7160  87.3306 15.27250288141449
TIANMU-1 12             
1 58646U 23205B   26193.84236868  .00003570  00000+0  13710-3 0  9996
2 58646  97.3430 214.7476 0005661 245.1169 114.9482 15.27081320141424
TIANMU-1 13             
1 58647U 23205C   26193.87579914  .00003443  00000+0  13235-3 0  9993
2 58647  97.3459 215.0597 0005567 222.0814 137.9998 15.27073857141423
TIANMU-1 14             
1 58648U 23205D   26193.86025880  .00003604  00000+0  13821-3 0  9991
2 58648  97.3394 214.2061 0006226 230.0096 130.0597 15.27117904141424
TIANMU-1 19             
1 58660U 23208A   26193.82951911  .00005229  00000+0  17204-3 0  9991
2 58660  97.4523 310.2692 0004356 207.3583 152.7430 15.31953857141258
TIANMU-1 20             
1 58661U 23208B   26193.84742596  .00005424  00000+0  17184-3 0  9995
2 58661  97.4465 310.9492 0006120 221.4227 138.6552 15.33143306141353
